[{"OBJECT_NAME":"STARLINK-1657","OBJECT_ID":"2020-062AF","EPOCH":"2026-03-10T00:00:02.999808","MEAN_MOTION":15.83582063,"ECCENTRICITY":0.00043426,"INCLINATION":53.0512,"RA_OF_ASC_NODE":327.5676,"ARG_OF_PERICENTER":250.0794,"MEAN_ANOMALY":145.7547,"EPHEMERIS_TYPE":0,"CLASSIFICATION_TYPE":"U","NORAD_CAT_ID":46354,"ELEMENT_SET_NO":999,"REV_AT_EPOCH":598,"BSTAR":0.0010591228,"MEAN_MOTION_DOT":0.00243389,"MEAN_MOTION_DDOT":0},{"OBJECT_NAME":"STARLINK-36761","OBJECT_ID":"2026-034T","EPOCH":"2026-03-09T20:17:15.239328","MEAN_MOTION":15.80996076,"ECCENTRICITY":4.801e-5,"INCLINATION":53.1594,"RA_OF_ASC_NODE":210.4254,"ARG_OF_PERICENTER":145.705,"MEAN_ANOMALY":214.4004,"EPHEMERIS_TYPE":0,"CLASSIFICATION_TYPE":"U","NORAD_CAT_ID":67867,"ELEMENT_SET_NO":999,"REV_AT_EPOCH":396,"BSTAR":0.0015816249,"MEAN_MOTION_DOT":0.0032537,"MEAN_MOTION_DDOT":0}]
